SENTINEL-6              
1 46984U 20086A   24063.20450583 -.00000058  00000+0  13940-4 0  9993
2 46984  66.0399  71.3956 0007890 270.8070  89.2041 12.80928841153371
